[{"OBJECT_NAME":"STARLINK-32738","OBJECT_ID":"2025-034T","EPOCH":"2026-03-09T17:01:57.684288","MEAN_MOTION":15.30207624,"ECCENTRICITY":6.133e-5,"INCLINATION":53.1612,"RA_OF_ASC_NODE":257.7598,"ARG_OF_PERICENTER":28.0915,"MEAN_ANOMALY":332.0119,"EPHEMERIS_TYPE":0,"CLASSIFICATION_TYPE":"U","NORAD_CAT_ID":63046,"ELEMENT_SET_NO":999,"REV_AT_EPOCH":5909,"BSTAR":0.00084608552,"MEAN_MOTION_DOT":0.00024789,"MEAN_MOTION_DDOT":0},{"OBJECT_NAME":"TEVEL2-3","OBJECT_ID":"2025-052J","EPOCH":"2026-03-09T15:29:22.754400","MEAN_MOTION":15.30377031,"ECCENTRICITY":0.0004761,"INCLINATION":97.3994,"RA_OF_ASC_NODE":324.7775,"ARG_OF_PERICENTER":105.7353,"MEAN_ANOMALY":254.4413,"EPHEMERIS_TYPE":0,"CLASSIFICATION_TYPE":"U","NORAD_CAT_ID":63218,"ELEMENT_SET_NO":999,"REV_AT_EPOCH":5485,"BSTAR":0.00069446,"MEAN_MOTION_DOT":0.00020365,"MEAN_MOTION_DDOT":0}]
